OSCAR 7 (AO-7)          
1 07530U 74089B   18064.91048490 -.00000041  00000-0  24117-4 0  9992
2 07530 101.6741  33.8343 0012049 173.6554 250.1733 12.53631320981654
UOSAT 2 (UO-11)         
1 14781U 84021B   18064.70007361  .00000058  00000-0  13351-4 0  9999
2 14781  97.6632 105.2543 0009851  67.1338 293.0915 14.82984493829108
LUSAT (LO-19)           
1 20442U 90005G   18064.86592857  .00000022  00000-0  24229-4 0  9992
2 20442  98.6018   4.0434 0012920  94.6594 265.6065 14.32888346469031
ITAMSAT (IO-26)         
1 22826U 93061D   18064.98812185  .00000002  00000-0  18341-4 0  9993
2 22826  98.8453  39.3490 0007870 279.0901  80.9390 14.30354258275005
RADIO ROSTO (RS-15)     
1 23439U 94085A   18064.76465921 -.00000046  00000-0 -92498-4 0  9994
2 23439  64.8163 156.0992 0160781 200.5708 330.8239 11.27566546955064
JAS-2 (FO-29)           
1 24278U 96046B   18065.15097304 -.00000064  00000-0 -29605-4 0  9995
2 24278  98.5271 278.0452 0350687  18.4073 342.9395 13.53082072 64306
TECHSAT 1B (GO-32)      
1 25397U 98043D   18064.85742711 -.00000005  00000-0  16977-4 0  9994
2 25397  98.6404   7.0603 0001083  16.2719 343.8495 14.23640780 20804
ISS (ZARYA)             
1 25544U 98067A   18064.89141530  .00001827  00000-0  34765-4 0  9997
2 25544  51.6427 173.6662 0002954 153.1457 335.2256 15.54187938102453
PCSAT (NO-44)           
1 26931U 01043C   18064.66892054 -.00000015  00000-0  26136-4 0  9997
2 26931  67.0512 136.5195 0006219 282.6836  77.3570 14.30495904857678
SAUDISAT 1C (SO-50)     
1 27607U 02058C   18064.91564055  .00000005  00000-0  21406-4 0  9993
2 27607  64.5555  45.6909 0053060 352.7769   7.2563 14.75425031817595
CUTE-1 (CO-55)          
1 27844U 03031E   18064.95432830  .00000044  00000-0  39472-4 0  9992
2 27844  98.6893  75.1222 0008923 314.9891  45.0563 14.22097818761487
CUBESAT XI-IV (CO-57)   
1 27848U 03031J   18064.95537102  .00000023  00000-0  30418-4 0  9992
2 27848  98.6983  75.4857 0008978 326.0034  34.0568 14.21703857761367
MOZHAYETS 4 (RS-22)     
1 27939U 03042A   18065.50396017  .00000067  00000-0  20527-4 0  9993
2 27939  97.9725 207.3924 0014277 112.6180 322.0211 14.66661914771761
CUBESAT XI-V (CO-58)    
1 28895U 05043F   18064.90279749  .00000118  00000-0  31389-4 0  9998
2 28895  97.8927 220.6317 0017568  39.9834 320.2659 14.63514905658532
CUTE-1.7+APD II (CO-65) 
1 32785U 08021C   18064.83232115  .00000190  00000-0  26240-4 0  9998
2 32785  97.5525  81.9200 0013731  27.5980 332.5964 14.88070951533732
DELFI-C3 (DO-64)        
1 32789U 08021G   18065.18802601  .00000834  00000-0  61719-4 0  9999
2 32789  97.5250 122.5560 0011028 291.1297  68.8751 15.05789822536289
SEEDS II (CO-66)        
1 32791U 08021J   18065.02166445  .00000271  00000-0  33174-4 0  9993
2 32791  97.5438  87.2154 0013503   8.9067 351.2389 14.90480525534145
YUBILEINY (RS-30)       
1 32953U 08025A   18065.50221810  .00000005  00000-0 -36234-4 0  9994
2 32953  82.4990  76.5390 0020341  75.0496 285.2834 12.43082107444010
KKS-1 (KISEKI)          
1 33499U 09002H   18064.95289782  .00000100  00000-0  22793-4 0  9996
2 33499  98.3506 243.3874 0007988 259.7845 100.2462 14.75299828489533
SWISSCUBE               
1 35932U 09051B   18064.88358255  .00000129  00000-0  40085-4 0  9993
2 35932  98.5284 213.6539 0008196 160.0267 200.1252 14.56126854448364
BEESAT                  
1 35933U 09051C   18065.12441505  .00000116  00000-0  37049-4 0  9995
2 35933  98.5324 215.3809 0006137 169.1892 190.9438 14.56234580448544
ITUPSAT 1               
1 35935U 09051E   18064.98358188  .00000095  00000-0  32968-4 0  9995
2 35935  98.5437 215.4911 0008522 167.5597 192.5811 14.55415399448316
XIWANG-1 (HOPE-1)       
1 36122U 09072B   18065.48175396 -.00000047  00000-0 -12289-4 0  9994
2 36122 100.0828  84.8941 0007379 355.1780   4.9262 13.16343578395139
JUGNU                   
1 37839U 11058B   18064.86418594  .00000317  00000-0  27154-4 0  9993
2 37839  19.9617 303.7818 0018960 187.8425 258.4508 14.12611032330632
SRMSAT                  
1 37841U 11058D   18065.17105028  .00000307  00000-0  23948-4 0  9992
2 37841  19.9731 348.9972 0011924  79.8709  64.9498 14.10599772330319
M-CUBED & EXP-1 PRIME   
1 37855U 11061F   18064.91309036  .00001600  00000-0  89633-4 0  9997
2 37855 101.7258  74.5916 0177558  27.8277 333.2295 15.04116941345654
STRAND-1                
1 39090U 13009E   18064.91622589 -.00000002  00000-0  14796-4 0  9999
2 39090  98.5315 272.5816 0008199 240.9512 119.0853 14.35013136262997
SOMP                    
1 39134U 13015E   18064.57396175  .00001166  00000-0  65037-4 0  9991
2 39134  64.8625 102.0042 0022419 224.6717 135.2605 15.18859448269168
BEESAT-3                
1 39135U 13015F   18065.21913419  .00000682  00000-0  44791-4 0  9996
2 39135  64.8681 111.9559 0028117 246.9798 112.8362 15.16433066269039
BEESAT-2                
1 39136U 13015G   18064.62524879  .00000649  00000-0  43672-4 0  9999
2 39136  64.8692 116.3778 0028986 246.8008 113.0064 15.15913552268506
ZACUBE-1 (TSHEPISOSAT)  
1 39417U 13066B   18064.66639849  .00000193  00000-0  30649-4 0  9999
2 39417  97.5992  98.7714 0060340 133.3322 227.2943 14.80884089231479
GOMX 1                  
1 39430U 13066Q   18065.50417338  .00000173  00000-0  40868-4 0  9997
2 39430  97.6881  49.8343 0150338 294.9788  63.5861 14.59033603228171
EAGLE 2                 
1 39436U 13066W   18064.87731396  .00086789  00000-0  98151-3 0  9999
2 39436  97.7123 192.8535 0005934 226.2583 133.8183 15.62145294237118
CUBEBUG-2 (LO-74)       
1 39440U 13066AA  18065.47907180  .00000162  00000-0  29605-4 0  9997
2 39440  97.6084  86.7843 0080958 168.0748 192.2405 14.75620183230775
FUNCUBE-1 (AO-73)       
1 39444U 13066AE  18064.64874344  .00000224  00000-0  34029-4 0  9999
2 39444  97.6004 100.1481 0059574 129.2690 231.3830 14.81650332230329
UWE-3                   
1 39446U 13066AG  18064.59464489  .00000166  00000-0  28706-4 0  9990
2 39446  97.6026  91.9633 0071065 152.5628 207.9365 14.78153042229221
SPROUT                  
1 39770U 14029E   18065.21995315  .00000849  00000-0  10163-3 0  9992
2 39770  97.8725 167.1710 0009159 177.4347 182.6915 14.86696503205069
UNISAT-6                
1 40012U 14033C   18065.22048278  .00000151  00000-0  30143-4 0  9993
2 40012  97.8238 305.2168 0058658 169.6051 190.6386 14.73771523199531
DUCHIFAT-1              
1 40021U 14033M   18065.32922018  .00000401  00000-0  47233-4 0  9993
2 40021  97.9174 343.8638 0013480 151.8935 208.3012 14.90213611201635
FUNCUBE-3 (EO-79)       
1 40025U 14033R   18065.44353745  .00000282  00000-0  36271-4 0  9992
2 40025  97.9084 341.0413 0012919 157.1438 203.0356 14.88647485201509
NUDT-PHONESAT           
1 40900U 15049B   18064.95890281  .00001932  00000-0  90450-4 0  9990
2 40900  97.4434  74.4247 0014581  36.8248 323.3986 15.20857676136229
ZDPS 2A                 
1 40901U 15049C   18065.50722109  .00000790  00000-0  43403-4 0  9993
2 40901  97.4602  73.4659 0014841  40.2559 319.9770 15.16887337136095
ZDPS 2B                 
1 40902U 15049D   18065.53320480  .00000786  00000-0  43470-4 0  9992
2 40902  97.4494  71.6854 0014836  37.5244 322.7022 15.16692480136080
XW-2A                   
1 40903U 15049E   18065.53236366  .00001659  00000-0  43485-4 0  9998
2 40903  97.3968  99.3223 0015563  45.8973 314.3551 15.40071653138000
KAITUO 1A               
1 40904U 15049F   18065.51427030  .00000287  00000-0  18923-4 0  9992
2 40904  97.4585  71.0253 0015958  38.4936 116.7184 15.14901904135951
2015-049G               
1 40905U 15049G   18065.50351101  .00000376  00000-0  24335-4 0  9990
2 40905  97.4581  69.2625 0016675  31.4636 328.7590 15.13874408135882
XW-2C                   
1 40906U 15049H   18065.48907670  .00000604  00000-0  35759-4 0  9992
2 40906  97.4601  70.8748 0015939  31.5388 328.6796 15.15041032135942
XW-2D                   
1 40907U 15049J   18065.51744079  .00000669  00000-0  39078-4 0  9998
2 40907  97.4574  70.6128 0015241  29.7151 330.4944 15.15181001135953
LILACSAT 2              
1 40908U 15049K   18064.93936985  .00000339  00000-0  22547-4 0  9990
2 40908  97.4681  69.5349 0016907  31.6439 328.5806 15.13421281135754
XW-2F                   
1 40910U 15049M   18065.47841570  .00000982  00000-0  54002-4 0  9993
2 40910  97.4580  71.7048 0015888  26.0949 334.1081 15.16299630135894
XW-2B                   
1 40911U 15049N   18065.20106516  .00000645  00000-0  37835-4 0  9990
2 40911  97.4610  70.8000 0015186  31.2785 328.9348 15.15128526135806
KAITUO 1B               
1 40912U 15049P   18065.09155197  .00001032  00000-0  53241-4 0  9997
2 40912  97.4513  73.8886 0016029  16.5187  24.2749 15.18488173136029
TIANWANG 1C (TW-1C)     
1 40926U 15051B   18065.50635287  .00006512  00000-0  12926-3 0  9996
2 40926  97.1968 108.3752 0008667 300.1425 169.7114 15.47308429137420
TIANWANG 1A (TW-1A)     
1 40928U 15051D   18064.78524787  .00002662  00000-0  73063-4 0  9991
2 40928  97.1967 100.7866 0011753 344.6063 104.1372 15.38070190136883
LAPAN-A2 (IO-86)        
1 40931U 15052B   18064.71475518  .00000867  00000-0  31745-4 0  9992
2 40931   6.0023 167.9231 0014057 343.9425  16.0313 14.76568285131681
E-ST@R-II               
1 41459U 16025D   18064.74066090  .00001073  00000-0  60047-4 0  9990
2 41459  98.1504 121.8977 0173407 134.7128 226.8357 15.04070312101878
AAUSAT 4                
1 41460U 16025E   18065.41157035  .00002102  00000-0  11228-3 0  9997
2 41460  98.1447 122.9559 0165042 129.2898 232.3087 15.05373961102020
NUSAT 1 (LO-87)         
1 41557U 16033B   18065.29954229  .00001243  00000-0  48096-4 0  9998
2 41557  97.4412 149.6969 0014598 155.5738 204.6196 15.28045368 98441
BEESAT-4                
1 41619U 16040W   18064.71538527  .00001213  00000-0  56492-4 0  9996
2 41619  97.4279 129.2472 0010532 227.3651 132.6698 15.21792561 82357
ALSAT 1N                
1 41789U 16059G   18065.37971005  .00000081  00000-0  24583-4 0  9997
2 41789  98.1310 129.5497 0029464  53.0239 307.3656 14.64131418 76979
CAS-2T & KS-1Q          
1 41847U 16066G   18064.91480218  .00000052  00000-0  18579-4 0  9996
2 41847  98.7590  91.5948 0366250 191.1304 168.1624 14.37864563 69483
NAYIF-1 (EO-88)         
1 42017U 17008BX  18064.89904647  .00001346  00000-0  58383-4 0  9991
2 42017  97.4605 130.5288 0007232  36.0832 324.0892 15.24089375 58331
LILACSAT-1              
1 42725U 98067ME  18065.49924540  .00015578  00000-0  16335-3 0  9994
2 42725  51.6369 159.9834 0003954 212.0905 147.9850 15.64579525 44417
MAX VALIER SAT          
1 42778U 17036P   18064.90610350  .00000810  00000-0  39491-4 0  9997
2 42778  97.4168 126.2765 0014317  74.6514 285.6303 15.21069189 38805
FOX-1B (AO-91)          
1 43017U 17073E   18065.37594985  .00000397  00000-0  37415-4 0  9996
2 43017  97.7015   0.8437 0258890 246.1742 111.2137 14.77929815 15922
FOX-1D (AO-92)          
1 43137U 18004AC  18064.85286633  .00000923  00000-0  42954-4 0  9993
2 43137  97.5469 127.2145 0011235 101.0894 259.1606 15.22464027  7983
